{
  "type": "FeatureCollection",
  "features": [
    {
      "type": "Feature",
      "properties": {
        "norad_id": 63632,
        "name": "SHENZHOU-20 (SZ-20)",
        "group": "stations",
        "lat": 13.977861692424302,
        "lon": -123.31440134180777,
        "alt_km": 395.93491693126,
        "timestamp": "2025-12-03T10:52:56.239900+00:00",
        "meta_object_name": "SHENZHOU-20 (SZ-20)",
        "meta_object_id": "2025-082A",
        "meta_epoch": "2025-12-02T14:12:45.225504",
        "meta_mean_motion": 15.58538929,
        "meta_eccentricity": 0.00102296,
        "meta_inclination": 41.4674,
        "meta_ra_of_asc_node": 78.2835,
        "meta_arg_of_pericenter": 314.561,
        "meta_mean_anomaly": 45.4392,
        "meta_ephemeris_type": 0,
        "meta_classification_type": "U",
        "meta_norad_cat_id": 63632,
        "meta_element_set_no": 999,
        "meta_rev_at_epoch": 25530,
        "meta_bstar": 0.00035376094,
        "meta_mean_motion_dot": 0.00027659,
        "meta_mean_motion_ddot": 0,
        "tle_line1": "1 63632U 25082A   25336.59219011  .00027659  00000+0  35376-3 0  9999",
        "tle_line2": "2 63632  41.4674  78.2835 0010229 314.5610  45.4392 15.58538929255302"
      },
      "geometry": {
        "type": "Point",
        "coordinates": [
          -123.31440134180777,
          13.977861692424302
        ]
      }
    },
    {
      "type": "Feature",
      "properties": {
        "norad_id": 64751,
        "name": "PROGRESS-MS 31",
        "group": "stations",
        "lat": 27.939314207930718,
        "lon": -146.70389626057886,
        "alt_km": 417.75779016520664,
        "timestamp": "2025-12-03T10:52:56.239910+00:00",
        "meta_object_name": "PROGRESS-MS 31",
        "meta_object_id": "2025-146A",
        "meta_epoch": "2025-12-02T02:12:50.598720",
        "meta_mean_motion": 15.49237019,
        "meta_eccentricity": 0.00036389,
        "meta_inclination": 51.6314,
        "meta_ra_of_asc_node": 195.1903,
        "meta_arg_of_pericenter": 193.8265,
        "meta_mean_anomaly": 166.2625,
        "meta_ephemeris_type": 0,
        "meta_classification_type": "U",
        "meta_norad_cat_id": 64751,
        "meta_element_set_no": 999,
        "meta_rev_at_epoch": 675,
        "meta_bstar": 0.00017380747,
        "meta_mean_motion_dot": 9.217e-05,
        "meta_mean_motion_ddot": 0,
        "tle_line1": "1 64751U 25146A   25336.09225230  .00009217  00000+0  17381-3 0  9994",
        "tle_line2": "2 64751  51.6314 195.1903 0003638 193.8265 166.2625 15.49237019  6754"
      },
      "geometry": {
        "type": "Point",
        "coordinates": [
          -146.70389626057886,
          27.939314207930718
        ]
      }
    },
    {
      "type": "Feature",
      "properties": {
        "norad_id": 64786,
        "name": "TIANZHOU-9",
        "group": "stations",
        "lat": 13.977860867584337,
        "lon": -123.31440030936245,
        "alt_km": 395.93491700994764,
        "timestamp": "2025-12-03T10:52:56.239920+00:00",
        "meta_object_name": "TIANZHOU-9",
        "meta_object_id": "2025-149A",
        "meta_epoch": "2025-12-02T14:12:45.225504",
        "meta_mean_motion": 15.58538929,
        "meta_eccentricity": 0.00102296,
        "meta_inclination": 41.4674,
        "meta_ra_of_asc_node": 78.2835,
        "meta_arg_of_pericenter": 314.561,
        "meta_mean_anomaly": 45.4392,
        "meta_ephemeris_type": 0,
        "meta_classification_type": "U",
        "meta_norad_cat_id": 64786,
        "meta_element_set_no": 999,
        "meta_rev_at_epoch": 25530,
        "meta_bstar": 0.00035376094,
        "meta_mean_motion_dot": 0.00027659,
        "meta_mean_motion_ddot": 0,
        "tle_line1": "1 64786U 25149A   25336.59219011  .00027659  00000+0  35376-3 0  9994",
        "tle_line2": "2 64786  41.4674  78.2835 0010229 314.5610  45.4392 15.58538929255303"
      },
      "geometry": {
        "type": "Point",
        "coordinates": [
          -123.31440030936245,
          13.977860867584337
        ]
      }
    },
    {
      "type": "Feature",
      "properties": {
        "norad_id": 65077,
        "name": "CREW DRAGON 11",
        "group": "stations",
        "lat": 27.93931512717223,
        "lon": -146.70389523341817,
        "alt_km": 417.75778999915383,
        "timestamp": "2025-12-03T10:52:56.239930+00:00",
        "meta_object_name": "CREW DRAGON 11",
        "meta_object_id": "2025-166A",
        "meta_epoch": "2025-12-02T02:12:50.598720",
        "meta_mean_motion": 15.49237019,
        "meta_eccentricity": 0.00036389,
        "meta_inclination": 51.6314,
        "meta_ra_of_asc_node": 195.1903,
        "meta_arg_of_pericenter": 193.8265,
        "meta_mean_anomaly": 166.2625,
        "meta_ephemeris_type": 0,
        "meta_classification_type": "U",
        "meta_norad_cat_id": 65077,
        "meta_element_set_no": 999,
        "meta_rev_at_epoch": 214,
        "meta_bstar": 0.00017380747,
        "meta_mean_motion_dot": 9.217e-05,
        "meta_mean_motion_ddot": 0,
        "tle_line1": "1 65077U 25166A   25336.09225230  .00009217  00000+0  17381-3 0  9998",
        "tle_line2": "2 65077  51.6314 195.1903 0003638 193.8265 166.2625 15.49237019  2145"
      },
      "geometry": {
        "type": "Point",
        "coordinates": [
          -146.70389523341817,
          27.93931512717223
        ]
      }
    },
    {
      "type": "Feature",
      "properties": {
        "norad_id": 65304,
        "name": "DRAGON CRS-33",
        "group": "stations",
        "lat": 27.93931563275667,
        "lon": -146.70389466847797,
        "alt_km": 417.75778990782055,
        "timestamp": "2025-12-03T10:52:56.239941+00:00",
        "meta_object_name": "DRAGON CRS-33",
        "meta_object_id": "2025-186A",
        "meta_epoch": "2025-12-02T02:12:50.598720",
        "meta_mean_motion": 15.49237019,
        "meta_eccentricity": 0.00036389,
        "meta_inclination": 51.6314,
        "meta_ra_of_asc_node": 195.1903,
        "meta_arg_of_pericenter": 193.8265,
        "meta_mean_anomaly": 166.2625,
        "meta_ephemeris_type": 0,
        "meta_classification_type": "U",
        "meta_norad_cat_id": 65304,
        "meta_element_set_no": 999,
        "meta_rev_at_epoch": 11,
        "meta_bstar": 0.00017380747,
        "meta_mean_motion_dot": 9.217e-05,
        "meta_mean_motion_ddot": 0,
        "tle_line1": "1 65304U 25186A   25336.09225230  .00009217  00000+0  17381-3 0  9993",
        "tle_line2": "2 65304  51.6314 195.1903 0003638 193.8265 166.2625 15.49237019   113"
      },
      "geometry": {
        "type": "Point",
        "coordinates": [
          -146.70389466847797,
          27.93931563275667
        ]
      }
    },
    {
      "type": "Feature",
      "properties": {
        "norad_id": 65586,
        "name": "PROGRESS-MS 32",
        "group": "stations",
        "lat": 27.939316046418337,
        "lon": -146.7038942062523,
        "alt_km": 417.75778983309283,
        "timestamp": "2025-12-03T10:52:56.239950+00:00",
        "meta_object_name": "PROGRESS-MS 32",
        "meta_object_id": "2025-204A",
        "meta_epoch": "2025-12-02T02:12:50.598720",
        "meta_mean_motion": 15.49237019,
        "meta_eccentricity": 0.00036389,
        "meta_inclination": 51.6314,
        "meta_ra_of_asc_node": 195.1903,
        "meta_arg_of_pericenter": 193.8265,
        "meta_mean_anomaly": 166.2625,
        "meta_ephemeris_type": 0,
        "meta_classification_type": "U",
        "meta_norad_cat_id": 65586,
        "meta_element_set_no": 999,
        "meta_rev_at_epoch": 27,
        "meta_bstar": 0.00017380747,
        "meta_mean_motion_dot": 9.217e-05,
        "meta_mean_motion_ddot": 0,
        "tle_line1": "1 65586U 25204A   25336.09225230  .00009217  00000+0  17381-3 0  9996",
        "tle_line2": "2 65586  51.6314 195.1903 0003638 193.8265 166.2625 15.49237019   272"
      },
      "geometry": {
        "type": "Point",
        "coordinates": [
          -146.7038942062523,
          27.939316046418337
        ]
      }
    },
    {
      "type": "Feature",
      "properties": {
        "norad_id": 65616,
        "name": "CYGNUS NG-23",
        "group": "stations",
        "lat": 27.939316735850625,
        "lon": -146.70389343588047,
        "alt_km": 417.75778970854935,
        "timestamp": "2025-12-03T10:52:56.239965+00:00",
        "meta_object_name": "CYGNUS NG-23",
        "meta_object_id": "2025-208A",
        "meta_epoch": "2025-12-02T02:12:50.598720",
        "meta_mean_motion": 15.49237019,
        "meta_eccentricity": 0.00036389,
        "meta_inclination": 51.6314,
        "meta_ra_of_asc_node": 195.1903,
        "meta_arg_of_pericenter": 193.8265,
        "meta_mean_anomaly": 166.2625,
        "meta_ephemeris_type": 0,
        "meta_classification_type": "U",
        "meta_norad_cat_id": 65616,
        "meta_element_set_no": 999,
        "meta_rev_at_epoch": 22,
        "meta_bstar": 0.00017380747,
        "meta_mean_motion_dot": 9.217e-05,
        "meta_mean_motion_ddot": 0,
        "tle_line1": "1 65616U 25208A   25336.09225230  .00009217  00000+0  17381-3 0  9994",
        "tle_line2": "2 65616  51.6314 195.1903 0003638 193.8265 166.2625 15.49237019   221"
      },
      "geometry": {
        "type": "Point",
        "coordinates": [
          -146.70389343588047,
          27.939316735850625
        ]
      }
    }
  ]
}